ONEWEB-0504             
1 54122U 22138K   26189.81187200  .00000022  00000+0  21654-4 0  9998
2 54122  87.9191 300.6607 0001804 107.4074 252.7257 13.19726050179684
ONEWEB-0505             
1 54123U 22138L   26189.80869632  .00000030  00000+0  42279-4 0  9999
2 54123  87.9191 300.6617 0001809 114.8172 245.3150 13.19727142179663
ONEWEB-0506             
1 54124U 22138M   26189.85926425  .00000014  00000+0  26085-5 0  9999
2 54124  87.9195 300.6485 0001951 112.9301 247.2037 13.19725255179660
ONEWEB-0507             
1 54125U 22138N   26189.80397187  .00000077  00000+0  15952-3 0  9990
2 54125  87.9182 300.6706 0001974 107.0605 253.0744 13.19726139179707
ONEWEB-0508             
1 54126U 22138P   26189.87663277  .00000036  00000+0  57465-4 0  9995
2 54126  87.9186 300.6550 0002091 113.6939 246.4414 13.19725944179694
ONEWEB-0509             
1 54127U 22138Q   26189.85134447  .00000066  00000+0  13318-3 0  9997
2 54127  87.9193 300.6527 0001927 101.9084 258.2265 13.19724610179666
ONEWEB-0510             
1 54128U 22138R   26189.72268514 -.00000011  00000+0 -58604-4 0  9997
2 54128  87.9190 270.1448 0002141  87.3041 272.8337 13.20769454182120
ONEWEB-0511             
1 54129U 22138S   26189.84817804 -.00000019  00000+0 -79298-4 0  9993
2 54129  87.9191 300.6545 0001678 102.9345 257.1975 13.19727425179696
ONEWEB-0512             
1 54130U 22138T   26189.76447533 -.00000056  00000+0 -17183-3 0  9999
2 54130  87.9182 300.6750 0001753 109.8030 250.3292 13.19726604179658
ONEWEB-0513             
1 54131U 22138U   26189.83700349 -.00000009  00000+0 -53173-4 0  9993
2 54131  87.9191 300.6019 0001298 125.3188 234.8066 13.20269533179570
ONEWEB-0514             
1 54132U 22138V   26189.85609321 -.00000002  00000+0 -36605-4 0  9998
2 54132  87.9192 300.6524 0001961  97.3859 262.7497 13.19726161179686
ONEWEB-0515             
1 54133U 22138W   26189.63348587  .00000020  00000+0  16183-4 0  9996
2 54133  87.9193 270.1578 0002837  92.3078 267.8381 13.20771847182134
ONEWEB-0516             
1 54134U 22138X   26189.75499005  .00000043  00000+0  76035-4 0  9999
2 54134  87.9181 300.6772 0002068 104.3928 255.7435 13.19726595179670
ONEWEB-0517             
1 54135U 22138Y   26189.81029079  .00000038  00000+0  61397-4 0  9996
2 54135  87.9193 300.6602 0001742  95.4913 264.6419 13.19725629179687
ONEWEB-0518             
1 54136U 22138Z   26189.75341335  .00000045  00000+0  80805-4 0  9995
2 54136  87.9189 300.6785 0002175  99.6669 260.4710 13.19723536179672
ONEWEB-0519             
1 54137U 22138AA  26189.85449745  .00000039  00000+0  65608-4 0  9998
2 54137  87.9192 300.6520 0001820  98.4271 261.7068 13.19727544179691
