{"fetched_at":"2026-07-09T18:16:42.472Z","source":"https://celestrak.org/NORAD/elements/gp.php?GROUP=oneweb&FORMAT=JSON","constellation":"oneweb","records":[{"OBJECT_NAME":"ONEWEB-0504","OBJECT_ID":"2022-138K","EPOCH":"2026-07-08T19:29:05.740800","CLASSIFICATION_TYPE":"U","MEAN_MOTION":13.1972605,"ECCENTRICITY":0.00018045,"INCLINATION":87.9191,"RA_OF_ASC_NODE":300.6607,"ARG_OF_PERICENTER":107.4074,"MEAN_ANOMALY":252.7257,"EPHEMERIS_TYPE":0,"NORAD_CAT_ID":54122,"ELEMENT_SET_NO":999,"REV_AT_EPOCH":17968,"BSTAR":0.000021654018,"MEAN_MOTION_DOT":2.2e-7,"MEAN_MOTION_DDOT":0},{"OBJECT_NAME":"ONEWEB-0505","OBJECT_ID":"2022-138L","EPOCH":"2026-07-08T19:24:31.362048","CLASSIFICATION_TYPE":"U","MEAN_MOTION":13.19727142,"ECCENTRICITY":0.00018097,"INCLINATION":87.9191,"RA_OF_ASC_NODE":300.6617,"ARG_OF_PERICENTER":114.8172,"MEAN_ANOMALY":245.315,"EPHEMERIS_TYPE":0,"NORAD_CAT_ID":54123,"ELEMENT_SET_NO":999,"REV_AT_EPOCH":17966,"BSTAR":0.000042279158,"MEAN_MOTION_DOT":3e-7,"MEAN_MOTION_DDOT":0},{"OBJECT_NAME":"ONEWEB-0506","OBJECT_ID":"2022-138M","EPOCH":"2026-07-08T20:37:20.431200","CLASSIFICATION_TYPE":"U","MEAN_MOTION":13.19725255,"ECCENTRICITY":0.00019511,"INCLINATION":87.9195,"RA_OF_ASC_NODE":300.6485,"ARG_OF_PERICENTER":112.9301,"MEAN_ANOMALY":247.2037,"EPHEMERIS_TYPE":0,"NORAD_CAT_ID":54124,"ELEMENT_SET_NO":999,"REV_AT_EPOCH":17966,"BSTAR":0.000002608464,"MEAN_MOTION_DOT":1.4e-7,"MEAN_MOTION_DDOT":0},{"OBJECT_NAME":"ONEWEB-0507","OBJECT_ID":"2022-138N","EPOCH":"2026-07-08T19:17:43.169568","CLASSIFICATION_TYPE":"U","MEAN_MOTION":13.19726139,"ECCENTRICITY":0.00019748,"INCLINATION":87.9182,"RA_OF_ASC_NODE":300.6706,"ARG_OF_PERICENTER":107.0605,"MEAN_ANOMALY":253.0744,"EPHEMERIS_TYPE":0,"NORAD_CAT_ID":54125,"ELEMENT_SET_NO":999,"REV_AT_EPOCH":17970,"BSTAR":0.00015952377,"MEAN_MOTION_DOT":7.7e-7,"MEAN_MOTION_DDOT":0},{"OBJECT_NAME":"ONEWEB-0508","OBJECT_ID":"2022-138P","EPOCH":"2026-07-08T21:02:21.071328","CLASSIFICATION_TYPE":"U","MEAN_MOTION":13.19725944,"ECCENTRICITY":0.00020919,"INCLINATION":87.9186,"RA_OF_ASC_NODE":300.655,"ARG_OF_PERICENTER":113.6939,"MEAN_ANOMALY":246.4414,"EPHEMERIS_TYPE":0,"NORAD_CAT_ID":54126,"ELEMENT_SET_NO":999,"REV_AT_EPOCH":17969,"BSTAR":0.000057465125,"MEAN_MOTION_DOT":3.6e-7,"MEAN_MOTION_DDOT":0},{"OBJECT_NAME":"ONEWEB-0509","OBJECT_ID":"2022-138Q","EPOCH":"2026-07-08T20:25:56.162208","CLASSIFICATION_TYPE":"U","MEAN_MOTION":13.1972461,"ECCENTRICITY":0.00019271,"INCLINATION":87.9193,"RA_OF_ASC_NODE":300.6527,"ARG_OF_PERICENTER":101.9084,"MEAN_ANOMALY":258.2265,"EPHEMERIS_TYPE":0,"NORAD_CAT_ID":54127,"ELEMENT_SET_NO":999,"REV_AT_EPOCH":17966,"BSTAR":0.00013318172,"MEAN_MOTION_DOT":6.6e-7,"MEAN_MOTION_DDOT":0},{"OBJECT_NAME":"ONEWEB-0510","OBJECT_ID":"2022-138R","EPOCH":"2026-07-08T17:20:39.996096","CLASSIFICATION_TYPE":"U","MEAN_MOTION":13.20769454,"ECCENTRICITY":0.0002141,"INCLINATION":87.919,"RA_OF_ASC_NODE":270.1448,"ARG_OF_PERICENTER":87.3041,"MEAN_ANOMALY":272.8337,"EPHEMERIS_TYPE":0,"NORAD_CAT_ID":54128,"ELEMENT_SET_NO":999,"REV_AT_EPOCH":18212,"BSTAR":-0.00005860442,"MEAN_MOTION_DOT":-1.1e-7,"MEAN_MOTION_DDOT":0},{"OBJECT_NAME":"ONEWEB-0511","OBJECT_ID":"2022-138S","EPOCH":"2026-07-08T20:21:22.582656","CLASSIFICATION_TYPE":"U","MEAN_MOTION":13.19727425,"ECCENTRICITY":0.0001678,"INCLINATION":87.9191,"RA_OF_ASC_NODE":300.6545,"ARG_OF_PERICENTER":102.9345,"MEAN_ANOMALY":257.1975,"EPHEMERIS_TYPE":0,"NORAD_CAT_ID":54129,"ELEMENT_SET_NO":999,"REV_AT_EPOCH":17969,"BSTAR":-0.000079298259,"MEAN_MOTION_DOT":-1.9e-7,"MEAN_MOTION_DDOT":0},{"OBJECT_NAME":"ONEWEB-0512","OBJECT_ID":"2022-138T","EPOCH":"2026-07-08T18:20:50.668512","CLASSIFICATION_TYPE":"U","MEAN_MOTION":13.19726604,"ECCENTRICITY":0.00017532,"INCLINATION":87.9182,"RA_OF_ASC_NODE":300.675,"ARG_OF_PERICENTER":109.803,"MEAN_ANOMALY":250.3292,"EPHEMERIS_TYPE":0,"NORAD_CAT_ID":54130,"ELEMENT_SET_NO":999,"REV_AT_EPOCH":17965,"BSTAR":-0.00017182528,"MEAN_MOTION_DOT":-5.6e-7,"MEAN_MOTION_DDOT":0},{"OBJECT_NAME":"ONEWEB-0513","OBJECT_ID":"2022-138U","EPOCH":"2026-07-08T20:05:17.101536","CLASSIFICATION_TYPE":"U","MEAN_MOTION":13.20269533,"ECCENTRICITY":0.00012982,"INCLINATION":87.9191,"RA_OF_ASC_NODE":300.6019,"ARG_OF_PERICENTER":125.3188,"MEAN_ANOMALY":234.8066,"EPHEMERIS_TYPE":0,"NORAD_CAT_ID":54131,"ELEMENT_SET_NO":999,"REV_AT_EPOCH":17957,"BSTAR":-0.000053172592,"MEAN_MOTION_DOT":-9e-8,"MEAN_MOTION_DDOT":0},{"OBJECT_NAME":"ONEWEB-0514","OBJECT_ID":"2022-138V","EPOCH":"2026-07-08T20:32:46.453344","CLASSIFICATION_TYPE":"U","MEAN_MOTION":13.19726161,"ECCENTRICITY":0.00019616,"INCLINATION":87.9192,"RA_OF_ASC_NODE":300.6524,"ARG_OF_PERICENTER":97.3859,"MEAN_ANOMALY":262.7497,"EPHEMERIS_TYPE":0,"NORAD_CAT_ID":54132,"ELEMENT_SET_NO":999,"REV_AT_EPOCH":17968,"BSTAR":-0.000036605415,"MEAN_MOTION_DOT":-2e-8,"MEAN_MOTION_DDOT":0},{"OBJECT_NAME":"ONEWEB-0515","OBJECT_ID":"2022-138W","EPOCH":"2026-07-08T15:12:13.179168","CLASSIFICATION_TYPE":"U","MEAN_MOTION":13.20771847,"ECCENTRICITY":0.00028375,"INCLINATION":87.9193,"RA_OF_ASC_NODE":270.1578,"ARG_OF_PERICENTER":92.3078,"MEAN_ANOMALY":267.8381,"EPHEMERIS_TYPE":0,"NORAD_CAT_ID":54133,"ELEMENT_SET_NO":999,"REV_AT_EPOCH":18213,"BSTAR":0.000016182809,"MEAN_MOTION_DOT":2e-7,"MEAN_MOTION_DDOT":0},{"OBJECT_NAME":"ONEWEB-0516","OBJECT_ID":"2022-138X","EPOCH":"2026-07-08T18:07:11.140320","CLASSIFICATION_TYPE":"U","MEAN_MOTION":13.19726595,"ECCENTRICITY":0.00020681,"INCLINATION":87.9181,"RA_OF_ASC_NODE":300.6772,"ARG_OF_PERICENTER":104.3928,"MEAN_ANOMALY":255.7435,"EPHEMERIS_TYPE":0,"NORAD_CAT_ID":54134,"ELEMENT_SET_NO":999,"REV_AT_EPOCH":17967,"BSTAR":0.000076035255,"MEAN_MOTION_DOT":4.3e-7,"MEAN_MOTION_DDOT":0},{"OBJECT_NAME":"ONEWEB-0517","OBJECT_ID":"2022-138Y","EPOCH":"2026-07-08T19:26:49.124256","CLASSIFICATION_TYPE":"U","MEAN_MOTION":13.19725629,"ECCENTRICITY":0.0001742,"INCLINATION":87.9193,"RA_OF_ASC_NODE":300.6602,"ARG_OF_PERICENTER":95.4913,"MEAN_ANOMALY":264.6419,"EPHEMERIS_TYPE":0,"NORAD_CAT_ID":54135,"ELEMENT_SET_NO":999,"REV_AT_EPOCH":17968,"BSTAR":0.000061397488,"MEAN_MOTION_DOT":3.8e-7,"MEAN_MOTION_DDOT":0},{"OBJECT_NAME":"ONEWEB-0518","OBJECT_ID":"2022-138Z","EPOCH":"2026-07-08T18:04:54.913440","CLASSIFICATION_TYPE":"U","MEAN_MOTION":13.19723536,"ECCENTRICITY":0.0002175,"INCLINATION":87.9189,"RA_OF_ASC_NODE":300.6785,"ARG_OF_PERICENTER":99.6669,"MEAN_ANOMALY":260.471,"EPHEMERIS_TYPE":0,"NORAD_CAT_ID":54136,"ELEMENT_SET_NO":999,"REV_AT_EPOCH":17967,"BSTAR":0.000080805037,"MEAN_MOTION_DOT":4.5e-7,"MEAN_MOTION_DDOT":0},{"OBJECT_NAME":"ONEWEB-0519","OBJECT_ID":"2022-138AA","EPOCH":"2026-07-08T20:30:28.579680","CLASSIFICATION_TYPE":"U","MEAN_MOTION":13.19727544,"ECCENTRICITY":0.00018205,"INCLINATION":87.9192,"RA_OF_ASC_NODE":300.652,"ARG_OF_PERICENTER":98.4271,"MEAN_ANOMALY":261.7068,"EPHEMERIS_TYPE":0,"NORAD_CAT_ID":54137,"ELEMENT_SET_NO":999,"REV_AT_EPOCH":17969,"BSTAR":0.000065608072,"MEAN_MOTION_DOT":3.9e-7,"MEAN_MOTION_DDOT":0}]}
